STARLINK-2663           
1 48443U 21040R   26068.58245682  .00013556  00000+0  46869-3 0  9997
2 48443  53.1599 178.6243 0001136  79.1084 281.0044 15.30220923266660
HERMES-3                
1 63835U 25052BR  26068.93751242  .00020316  00000+0  69958-3 0  9995
2 63835  97.3987 324.6131 0007993 112.9583 247.2502 15.30039785 54863
