[{"OBJECT_NAME":"STARLINK-2663","OBJECT_ID":"2021-040R","EPOCH":"2026-03-09T13:58:44.269248","MEAN_MOTION":15.30220923,"ECCENTRICITY":0.0001136,"INCLINATION":53.1599,"RA_OF_ASC_NODE":178.6243,"ARG_OF_PERICENTER":79.1084,"MEAN_ANOMALY":281.0044,"EPHEMERIS_TYPE":0,"CLASSIFICATION_TYPE":"U","NORAD_CAT_ID":48443,"ELEMENT_SET_NO":999,"REV_AT_EPOCH":26666,"BSTAR":0.00046869,"MEAN_MOTION_DOT":0.00013556,"MEAN_MOTION_DDOT":0},{"OBJECT_NAME":"HERMES-3","OBJECT_ID":"2025-052BR","EPOCH":"2026-03-09T22:30:01.073952","MEAN_MOTION":15.30039786,"ECCENTRICITY":0.00079928,"INCLINATION":97.3987,"RA_OF_ASC_NODE":324.6131,"ARG_OF_PERICENTER":112.9583,"MEAN_ANOMALY":247.2502,"EPHEMERIS_TYPE":0,"CLASSIFICATION_TYPE":"U","NORAD_CAT_ID":63835,"ELEMENT_SET_NO":999,"REV_AT_EPOCH":5486,"BSTAR":0.0006995793,"MEAN_MOTION_DOT":0.00020316,"MEAN_MOTION_DDOT":0}]
